{
  "type": "FeatureCollection",
  "features": [
    {
      "type": "Feature",
      "properties": {
        "norad_id": 66730,
        "name": "FLOCK 4H-27",
        "group": "last-30-days",
        "lat": 63.54358500427213,
        "lon": -98.73652868368062,
        "alt_km": 504.84881308221065,
        "timestamp": "2025-12-20T09:36:00.352581+00:00",
        "meta_object_name": "FLOCK 4H-27",
        "meta_object_id": "2025-276BS",
        "meta_epoch": "2025-12-20T04:20:51.198432",
        "meta_mean_motion": 15.18049887,
        "meta_eccentricity": 0.0001052,
        "meta_inclination": 97.4387,
        "meta_ra_of_asc_node": 65.8267,
        "meta_arg_of_pericenter": 127.9653,
        "meta_mean_anomaly": 232.1676,
        "meta_ephemeris_type": 0,
        "meta_classification_type": "U",
        "meta_norad_cat_id": 66730,
        "meta_element_set_no": 999,
        "meta_rev_at_epoch": 325,
        "meta_bstar": 0.00027494,
        "meta_mean_motion_dot": 5.532e-05,
        "meta_mean_motion_ddot": 0,
        "tle_line1": "1 66730U 25276BS  25354.18114813  .00005532  00000+0  27494-3 0  9993",
        "tle_line2": "2 66730  97.4387  65.8267 0001052 127.9653 232.1676 15.18049887  3255"
      },
      "geometry": {
        "type": "Point",
        "coordinates": [
          -98.73652868368062,
          63.54358500427213
        ]
      }
    },
    {
      "type": "Feature",
      "properties": {
        "norad_id": 66731,
        "name": "FLOCK 4H-28",
        "group": "last-30-days",
        "lat": 42.389655591439166,
        "lon": 59.16482249101638,
        "alt_km": 512.4910326480467,
        "timestamp": "2025-12-20T09:36:00.352591+00:00",
        "meta_object_name": "FLOCK 4H-28",
        "meta_object_id": "2025-276BT",
        "meta_epoch": "2025-12-20T03:04:48.145728",
        "meta_mean_motion": 15.17110062,
        "meta_eccentricity": 0.0003226,
        "meta_inclination": 97.439,
        "meta_ra_of_asc_node": 65.7479,
        "meta_arg_of_pericenter": 277.1965,
        "meta_mean_anomaly": 82.8901,
        "meta_ephemeris_type": 0,
        "meta_classification_type": "U",
        "meta_norad_cat_id": 66731,
        "meta_element_set_no": 999,
        "meta_rev_at_epoch": 324,
        "meta_bstar": 0.00028643,
        "meta_mean_motion_dot": 5.612e-05,
        "meta_mean_motion_ddot": 0,
        "tle_line1": "1 66731U 25276BT  25354.12833502  .00005612  00000+0  28643-3 0  9997",
        "tle_line2": "2 66731  97.4390  65.7479 0003226 277.1965  82.8901 15.17110062  3246"
      },
      "geometry": {
        "type": "Point",
        "coordinates": [
          59.16482249101638,
          42.389655591439166
        ]
      }
    },
    {
      "type": "Feature",
      "properties": {
        "norad_id": 66732,
        "name": "FLOCK 4H-29",
        "group": "last-30-days",
        "lat": 53.25420568986101,
        "lon": 55.92176138727132,
        "alt_km": 510.8128755554535,
        "timestamp": "2025-12-20T09:36:00.352601+00:00",
        "meta_object_name": "FLOCK 4H-29",
        "meta_object_id": "2025-276BU",
        "meta_epoch": "2025-12-20T04:36:53.457696",
        "meta_mean_motion": 15.1727423,
        "meta_eccentricity": 0.0002503,
        "meta_inclination": 97.4513,
        "meta_ra_of_asc_node": 65.8133,
        "meta_arg_of_pericenter": 244.0915,
        "meta_mean_anomaly": 116.006,
        "meta_ephemeris_type": 0,
        "meta_classification_type": "U",
        "meta_norad_cat_id": 66732,
        "meta_element_set_no": 999,
        "meta_rev_at_epoch": 325,
        "meta_bstar": 0.00063408,
        "meta_mean_motion_dot": 0.00012574,
        "meta_mean_motion_ddot": 0,
        "tle_line1": "1 66732U 25276BU  25354.19228539  .00012574  00000+0  63408-3 0  9996",
        "tle_line2": "2 66732  97.4513  65.8133 0002503 244.0915 116.0060 15.17274230  3252"
      },
      "geometry": {
        "type": "Point",
        "coordinates": [
          55.92176138727132,
          53.25420568986101
        ]
      }
    },
    {
      "type": "Feature",
      "properties": {
        "norad_id": 66733,
        "name": "FLOCK 4H-30",
        "group": "last-30-days",
        "lat": 48.383745354681835,
        "lon": 57.569297891026146,
        "alt_km": 511.7273717276994,
        "timestamp": "2025-12-20T09:36:00.352613+00:00",
        "meta_object_name": "FLOCK 4H-30",
        "meta_object_id": "2025-276BV",
        "meta_epoch": "2025-12-20T03:03:23.013216",
        "meta_mean_motion": 15.17773353,
        "meta_eccentricity": 0.0005951,
        "meta_inclination": 97.4445,
        "meta_ra_of_asc_node": 65.7654,
        "meta_arg_of_pericenter": 238.2181,
        "meta_mean_anomaly": 121.8473,
        "meta_ephemeris_type": 0,
        "meta_classification_type": "U",
        "meta_norad_cat_id": 66733,
        "meta_element_set_no": 999,
        "meta_rev_at_epoch": 324,
        "meta_bstar": 0.019368,
        "meta_mean_motion_dot": 0.00413861,
        "meta_mean_motion_ddot": 0,
        "tle_line1": "1 66733U 25276BV  25354.12734969  .00413861  00000+0  19368-1 0  9997",
        "tle_line2": "2 66733  97.4445  65.7654 0005951 238.2181 121.8473 15.17773353  3245"
      },
      "geometry": {
        "type": "Point",
        "coordinates": [
          57.569297891026146,
          48.383745354681835
        ]
      }
    },
    {
      "type": "Feature",
      "properties": {
        "norad_id": 66734,
        "name": "FLOCK 4H-31",
        "group": "last-30-days",
        "lat": 48.36481329774723,
        "lon": 57.558596807503996,
        "alt_km": 510.87827262061364,
        "timestamp": "2025-12-20T09:36:00.352623+00:00",
        "meta_object_name": "FLOCK 4H-31",
        "meta_object_id": "2025-276BW",
        "meta_epoch": "2025-12-20T03:03:13.237920",
        "meta_mean_motion": 15.17180172,
        "meta_eccentricity": 0.0002494,
        "meta_inclination": 97.4404,
        "meta_ra_of_asc_node": 65.7446,
        "meta_arg_of_pericenter": 291.7917,
        "meta_mean_anomaly": 68.3051,
        "meta_ephemeris_type": 0,
        "meta_classification_type": "U",
        "meta_norad_cat_id": 66734,
        "meta_element_set_no": 999,
        "meta_rev_at_epoch": 324,
        "meta_bstar": 0.00040317,
        "meta_mean_motion_dot": 7.944e-05,
        "meta_mean_motion_ddot": 0,
        "tle_line1": "1 66734U 25276BW  25354.12723655  .00007944  00000+0  40317-3 0  9999",
        "tle_line2": "2 66734  97.4404  65.7446 0002494 291.7917  68.3051 15.17180172  3248"
      },
      "geometry": {
        "type": "Point",
        "coordinates": [
          57.558596807503996,
          48.36481329774723
        ]
      }
    },
    {
      "type": "Feature",
      "properties": {
        "norad_id": 66735,
        "name": "FLOCK 4H-32",
        "group": "last-30-days",
        "lat": 45.96251969763545,
        "lon": 58.259224082623675,
        "alt_km": 511.9392975175406,
        "timestamp": "2025-12-20T09:36:00.352633+00:00",
        "meta_object_name": "FLOCK 4H-32",
        "meta_object_id": "2025-276BX",
        "meta_epoch": "2025-12-20T00:00:02.000160",
        "meta_mean_motion": 15.17179707,
        "meta_eccentricity": 0.0003264,
        "meta_inclination": 97.4441,
        "meta_ra_of_asc_node": 65.6376,
        "meta_arg_of_pericenter": 273.6646,
        "meta_mean_anomaly": 109.598,
        "meta_ephemeris_type": 0,
        "meta_classification_type": "U",
        "meta_norad_cat_id": 66735,
        "meta_element_set_no": 999,
        "meta_rev_at_epoch": 265,
        "meta_bstar": 0.001275,
        "meta_mean_motion_dot": 0.00025327,
        "meta_mean_motion_ddot": 0,
        "tle_line1": "1 66735U 25276BX  25354.00002315  .00025327  00000+0  12750-2 0  9994",
        "tle_line2": "2 66735  97.4441  65.6376 0003264 273.6646 109.5980 15.17179707  2650"
      },
      "geometry": {
        "type": "Point",
        "coordinates": [
          58.259224082623675,
          45.96251969763545
        ]
      }
    },
    {
      "type": "Feature",
      "properties": {
        "norad_id": 66736,
        "name": "FLOCK 4H-33",
        "group": "last-30-days",
        "lat": 51.41761311063658,
        "lon": -104.50412709680865,
        "alt_km": 505.1116149526797,
        "timestamp": "2025-12-20T09:36:00.352643+00:00",
        "meta_object_name": "FLOCK 4H-33",
        "meta_object_id": "2025-276BY",
        "meta_epoch": "2025-12-20T04:17:35.897280",
        "meta_mean_motion": 15.18246372,
        "meta_eccentricity": 0.0002379,
        "meta_inclination": 97.4438,
        "meta_ra_of_asc_node": 65.8458,
        "meta_arg_of_pericenter": 165.6799,
        "meta_mean_anomaly": 194.4502,
        "meta_ephemeris_type": 0,
        "meta_classification_type": "U",
        "meta_norad_cat_id": 66736,
        "meta_element_set_no": 999,
        "meta_rev_at_epoch": 325,
        "meta_bstar": 0.00030675,
        "meta_mean_motion_dot": 6.215e-05,
        "meta_mean_motion_ddot": 0,
        "tle_line1": "1 66736U 25276BY  25354.17888770  .00006215  00000+0  30675-3 0  9992",
        "tle_line2": "2 66736  97.4438  65.8458 0002379 165.6799 194.4502 15.18246372  3259"
      },
      "geometry": {
        "type": "Point",
        "coordinates": [
          -104.50412709680865,
          51.41761311063658
        ]
      }
    }
  ]
}